IRIDIUM 112             
1 41925U 17003J   25358.99132020 -.00000008  00000+0 -98337-5 0  9995
2 41925  86.3994 161.0972 0001793  93.5173 266.6227 14.34217416468301
IRIDIUM 111             
1 41926U 17003K   25358.97863823  .00000364  00000+0  12274-3 0  9993
2 41926  86.3990 161.1688 0002002  94.8719 265.2705 14.34217636468284
IRIDIUM 113             
1 42803U 17039A   25359.09813803  .00000026  00000+0  22172-5 0  9999
2 42803  86.3963  34.9286 0002038  95.2408 264.9020 14.34217854446238
IRIDIUM 123             
1 42804U 17039B   25359.13961723  .00000119  00000+0  35308-4 0  9997
2 42804  86.3959  66.3955 0002295 103.2100 256.9352 14.34218132445003
IRIDIUM 120             
1 42805U 17039C   25359.02202559  .00000288  00000+0  95596-4 0  9993
2 42805  86.3955  34.7656 0002462  91.5446 268.6032 14.34216912446218
IRIDIUM 115             
1 42806U 17039D   25359.09817341  .00000348  00000+0  97438-4 0  9996
2 42806  86.4489  34.8385 0002723  99.5812 260.5697 14.43282583449158
IRIDIUM 118             
1 42807U 17039E   25359.10156118  .00000286  00000+0  95132-4 0  9997
2 42807  86.3957  66.4103 0001983  97.3033 262.8388 14.34217469444995
IRIDIUM 117             
1 42808U 17039F   25359.12058933  .00000089  00000+0  24565-4 0  9999
2 42808  86.3959  66.3613 0002209 102.5233 257.6210 14.34217996445022
